<?xml version="1.0" encoding="UTF-8" ?>
<gpx version="1.1"
     creator="gMapToGPX 6.4.11 - http://github.com/seafoodbuffet/gMapToGPX"
     xmlns="http://www.topografix.com/GPX/1/1"
     xmlns:xsi="http://www.w3.org/2001/XMLSchema-instance"
     xsi:schemaLocation="http://www.topografix.com/GPX/1/1 http://www.topografix.com/GPX/1/1/gpx.xsd">
   <rte>
      <name>Gmaps Pedometer Route</name>
      <rtept lat="39.10503" lon="-94.59219">
         <name>Start</name>
      </rtept>
      <rtept lat="39.10501" lon="-94.59219">
         <name>Turn 1</name>
      </rtept>
      <rtept lat="39.105" lon="-94.59221">
         <name>Turn 2</name>
      </rtept>
      <rtept lat="39.10498" lon="-94.59222">
         <name>Turn 3</name>
      </rtept>
      <rtept lat="39.10497" lon="-94.59224">
         <name>Turn 4</name>
      </rtept>
      <rtept lat="39.10495" lon="-94.59225">
         <name>Turn 5</name>
      </rtept>
      <rtept lat="39.10493" lon="-94.59225">
         <name>Turn 6</name>
      </rtept>
      <rtept lat="39.10491" lon="-94.59226">
         <name>Turn 7</name>
      </rtept>
      <rtept lat="39.10489" lon="-94.59226">
         <name>Turn 8</name>
      </rtept>
      <rtept lat="39.10487" lon="-94.59226">
         <name>Turn 9</name>
      </rtept>
      <rtept lat="39.10485" lon="-94.59225">
         <name>Turn 10</name>
      </rtept>
      <rtept lat="39.10484" lon="-94.59224">
         <name>Turn 11</name>
      </rtept>
      <rtept lat="39.10482" lon="-94.59223">
         <name>Turn 12</name>
      </rtept>
      <rtept lat="39.10481" lon="-94.59221">
         <name>Turn 13</name>
      </rtept>
      <rtept lat="39.10479" lon="-94.59219">
         <name>Turn 14</name>
      </rtept>
      <rtept lat="39.10478" lon="-94.59217">
         <name>Turn 15</name>
      </rtept>
      <rtept lat="39.10477" lon="-94.59215">
         <name>Turn 16</name>
      </rtept>
      <rtept lat="39.10477" lon="-94.59213">
         <name>Turn 17</name>
      </rtept>
      <rtept lat="39.10476" lon="-94.5921">
         <name>Turn 18</name>
      </rtept>
      <rtept lat="39.10476" lon="-94.59208">
         <name>Turn 19</name>
      </rtept>
      <rtept lat="39.10476" lon="-94.59205">
         <name>Turn 20</name>
      </rtept>
      <rtept lat="39.10476" lon="-94.59206">
         <name>Turn 21</name>
      </rtept>
      <rtept lat="39.1047" lon="-94.59215">
         <name>Turn 22</name>
      </rtept>
      <rtept lat="39.10463" lon="-94.59216">
         <name>Turn 23</name>
      </rtept>
      <rtept lat="39.10459" lon="-94.59216">
         <name>Turn 24</name>
      </rtept>
      <rtept lat="39.10434" lon="-94.59217">
         <name>Turn 25</name>
      </rtept>
      <rtept lat="39.10433" lon="-94.59217">
         <name>Turn 26</name>
      </rtept>
      <rtept lat="39.10398" lon="-94.59218">
         <name>Turn 27</name>
      </rtept>
      <rtept lat="39.10396" lon="-94.59218">
         <name>Turn 28</name>
      </rtept>
      <rtept lat="39.10396" lon="-94.59217">
         <name>Turn 29</name>
      </rtept>
      <rtept lat="39.10396" lon="-94.59218">
         <name>Turn 30</name>
      </rtept>
      <rtept lat="39.10398" lon="-94.59218">
         <name>Turn 31</name>
      </rtept>
      <rtept lat="39.10395" lon="-94.59228">
         <name>Turn 32</name>
      </rtept>
      <rtept lat="39.1039" lon="-94.59237">
         <name>Turn 33</name>
      </rtept>
      <rtept lat="39.10381" lon="-94.59248">
         <name>Turn 34</name>
      </rtept>
      <rtept lat="39.1037" lon="-94.59258">
         <name>Turn 35</name>
      </rtept>
      <rtept lat="39.10349" lon="-94.59272">
         <name>Turn 36</name>
      </rtept>
      <rtept lat="39.10345" lon="-94.59274">
         <name>Turn 37</name>
      </rtept>
      <rtept lat="39.10336" lon="-94.59279">
         <name>Turn 38</name>
      </rtept>
      <rtept lat="39.10327" lon="-94.59288">
         <name>Turn 39</name>
      </rtept>
      <rtept lat="39.1032" lon="-94.593">
         <name>Turn 40</name>
      </rtept>
      <rtept lat="39.10317" lon="-94.59309">
         <name>Turn 41</name>
      </rtept>
      <rtept lat="39.10316" lon="-94.59314">
         <name>Turn 42</name>
      </rtept>
      <rtept lat="39.10316" lon="-94.59319">
         <name>Turn 43</name>
      </rtept>
      <rtept lat="39.10307" lon="-94.59319">
         <name>Turn 44</name>
      </rtept>
      <rtept lat="39.10302" lon="-94.59323">
         <name>Turn 45</name>
      </rtept>
      <rtept lat="39.10288" lon="-94.59324">
         <name>Turn 46</name>
      </rtept>
      <rtept lat="39.10284" lon="-94.59327">
         <name>Turn 47</name>
      </rtept>
      <rtept lat="39.10265" lon="-94.59328">
         <name>Turn 48</name>
      </rtept>
      <rtept lat="39.10264" lon="-94.59328">
         <name>Turn 49</name>
      </rtept>
      <rtept lat="39.10263" lon="-94.59315">
         <name>Turn 50</name>
      </rtept>
      <rtept lat="39.10255" lon="-94.59316">
         <name>Turn 51</name>
      </rtept>
      <rtept lat="39.10255" lon="-94.59325">
         <name>Turn 52</name>
      </rtept>
      <rtept lat="39.10255" lon="-94.59325">
         <name>Turn 53</name>
      </rtept>
      <rtept lat="39.1022" lon="-94.59327">
         <name>Turn 54</name>
      </rtept>
      <rtept lat="39.10185" lon="-94.59329">
         <name>Turn 55</name>
      </rtept>
      <rtept lat="39.10183" lon="-94.59329">
         <name>Turn 56</name>
      </rtept>
      <rtept lat="39.10175" lon="-94.5933">
         <name>Turn 57</name>
      </rtept>
      <rtept lat="39.10162" lon="-94.59326">
         <name>Turn 58</name>
      </rtept>
      <rtept lat="39.10157" lon="-94.59323">
         <name>Turn 59</name>
      </rtept>
      <rtept lat="39.10152" lon="-94.5932">
         <name>Turn 60</name>
      </rtept>
      <rtept lat="39.10147" lon="-94.59313">
         <name>Turn 61</name>
      </rtept>
      <rtept lat="39.10146" lon="-94.59311">
         <name>Turn 62</name>
      </rtept>
      <rtept lat="39.10145" lon="-94.59309">
         <name>Turn 63</name>
      </rtept>
      <rtept lat="39.10143" lon="-94.59307">
         <name>Turn 64</name>
      </rtept>
      <rtept lat="39.10136" lon="-94.59294">
         <name>Turn 65</name>
      </rtept>
      <rtept lat="39.10134" lon="-94.59292">
         <name>Turn 66</name>
      </rtept>
      <rtept lat="39.10128" lon="-94.59279">
         <name>Turn 67</name>
      </rtept>
      <rtept lat="39.10121" lon="-94.59261">
         <name>Turn 68</name>
      </rtept>
      <rtept lat="39.10117" lon="-94.59243">
         <name>Turn 69</name>
      </rtept>
      <rtept lat="39.10117" lon="-94.59226">
         <name>Turn 70</name>
      </rtept>
      <rtept lat="39.10117" lon="-94.59223">
         <name>Turn 71</name>
      </rtept>
      <rtept lat="39.10116" lon="-94.59214">
         <name>Turn 72</name>
      </rtept>
      <rtept lat="39.10116" lon="-94.59203">
         <name>Turn 73</name>
      </rtept>
      <rtept lat="39.10115" lon="-94.59183">
         <name>Turn 74</name>
      </rtept>
      <rtept lat="39.10114" lon="-94.59169">
         <name>Turn 75</name>
      </rtept>
      <rtept lat="39.10112" lon="-94.59112">
         <name>Turn 76</name>
      </rtept>
      <rtept lat="39.10114" lon="-94.59112">
         <name>Turn 77</name>
      </rtept>
      <rtept lat="39.10112" lon="-94.59112">
         <name>Turn 78</name>
      </rtept>
      <rtept lat="39.10106" lon="-94.59112">
         <name>Turn 79</name>
      </rtept>
      <rtept lat="39.10066" lon="-94.59115">
         <name>Turn 80</name>
      </rtept>
      <rtept lat="39.10029" lon="-94.59117">
         <name>Turn 81</name>
      </rtept>
      <rtept lat="39.10022" lon="-94.59117">
         <name>Turn 82</name>
      </rtept>
      <rtept lat="39.10018" lon="-94.59118">
         <name>Turn 83</name>
      </rtept>
      <rtept lat="39.10015" lon="-94.59118">
         <name>Turn 84</name>
      </rtept>
      <rtept lat="39.0999" lon="-94.59119">
         <name>Turn 85</name>
      </rtept>
      <rtept lat="39.09981" lon="-94.59119">
         <name>Turn 86</name>
      </rtept>
      <rtept lat="39.09978" lon="-94.59119">
         <name>Turn 87</name>
      </rtept>
      <rtept lat="39.09971" lon="-94.5912">
         <name>Turn 88</name>
      </rtept>
      <rtept lat="39.09924" lon="-94.59121">
         <name>Turn 89</name>
      </rtept>
      <rtept lat="39.09914" lon="-94.59121">
         <name>Turn 90</name>
      </rtept>
      <rtept lat="39.09878" lon="-94.59122">
         <name>Turn 91</name>
      </rtept>
      <rtept lat="39.0987" lon="-94.59122">
         <name>Turn 92</name>
      </rtept>
      <rtept lat="39.09844" lon="-94.59123">
         <name>Turn 93</name>
      </rtept>
      <rtept lat="39.09836" lon="-94.59124">
         <name>Turn 94</name>
      </rtept>
      <rtept lat="39.09831" lon="-94.59124">
         <name>Turn 95</name>
      </rtept>
      <rtept lat="39.09823" lon="-94.59124">
         <name>Turn 96</name>
      </rtept>
      <rtept lat="39.09797" lon="-94.59126">
         <name>Turn 97</name>
      </rtept>
      <rtept lat="39.09794" lon="-94.59126">
         <name>Turn 98</name>
      </rtept>
      <rtept lat="39.09786" lon="-94.5913">
         <name>Turn 99</name>
      </rtept>
      <rtept lat="39.09782" lon="-94.59132">
         <name>Turn 100</name>
      </rtept>
      <rtept lat="39.09777" lon="-94.59147">
         <name>Turn 101</name>
      </rtept>
      <rtept lat="39.09773" lon="-94.5915">
         <name>Turn 102</name>
      </rtept>
      <rtept lat="39.09731" lon="-94.59244">
         <name>Turn 103</name>
      </rtept>
      <rtept lat="39.0972" lon="-94.59268">
         <name>Turn 104</name>
      </rtept>
      <rtept lat="39.09713" lon="-94.59305">
         <name>Turn 105</name>
      </rtept>
      <rtept lat="39.09714" lon="-94.59316">
         <name>Turn 106</name>
      </rtept>
      <rtept lat="39.09734" lon="-94.59316">
         <name>Turn 107</name>
      </rtept>
      <rtept lat="39.09777" lon="-94.59317">
         <name>Turn 108</name>
      </rtept>
      <rtept lat="39.09787" lon="-94.59316">
         <name>Turn 109</name>
      </rtept>
      <rtept lat="39.09788" lon="-94.59317">
         <name>Turn 110</name>
      </rtept>
      <rtept lat="39.09797" lon="-94.59324">
         <name>Turn 111</name>
      </rtept>
      <rtept lat="39.09808" lon="-94.59326">
         <name>Turn 112</name>
      </rtept>
      <rtept lat="39.09809" lon="-94.59352">
         <name>Turn 113</name>
      </rtept>
      <rtept lat="39.09811" lon="-94.59408">
         <name>Turn 114</name>
      </rtept>
      <rtept lat="39.09816" lon="-94.59477">
         <name>Turn 115</name>
      </rtept>
      <rtept lat="39.09815" lon="-94.59491">
         <name>Turn 116</name>
      </rtept>
      <rtept lat="39.09824" lon="-94.59506">
         <name>Turn 117</name>
      </rtept>
      <rtept lat="39.0982" lon="-94.59526">
         <name>Turn 118</name>
      </rtept>
      <rtept lat="39.0981" lon="-94.59526">
         <name>Turn 119</name>
      </rtept>
      <rtept lat="39.09807" lon="-94.59526">
         <name>Turn 120</name>
      </rtept>
      <rtept lat="39.098" lon="-94.5954">
         <name>Turn 121</name>
      </rtept>
      <rtept lat="39.09785" lon="-94.59543">
         <name>Turn 122</name>
      </rtept>
      <rtept lat="39.09732" lon="-94.59545">
         <name>Turn 123</name>
      </rtept>
      <rtept lat="39.09728" lon="-94.59546">
         <name>Turn 124</name>
      </rtept>
      <rtept lat="39.09717" lon="-94.59549">
         <name>Turn 125</name>
      </rtept>
      <rtept lat="39.09716" lon="-94.59549">
         <name>Turn 126</name>
      </rtept>
      <rtept lat="39.09697" lon="-94.59558">
         <name>Turn 127</name>
      </rtept>
      <rtept lat="39.09673" lon="-94.59568">
         <name>Turn 128</name>
      </rtept>
      <rtept lat="39.0965" lon="-94.59579">
         <name>Turn 129</name>
      </rtept>
      <rtept lat="39.09646" lon="-94.5958">
         <name>Turn 130</name>
      </rtept>
      <rtept lat="39.09641" lon="-94.59581">
         <name>Turn 131</name>
      </rtept>
      <rtept lat="39.09638" lon="-94.5958">
         <name>Turn 132</name>
      </rtept>
      <rtept lat="39.09632" lon="-94.59574">
         <name>Turn 133</name>
      </rtept>
      <rtept lat="39.09627" lon="-94.5957">
         <name>Turn 134</name>
      </rtept>
      <rtept lat="39.09626" lon="-94.59569">
         <name>Turn 135</name>
      </rtept>
      <rtept lat="39.09617" lon="-94.59565">
         <name>Turn 136</name>
      </rtept>
      <rtept lat="39.09616" lon="-94.59565">
         <name>Turn 137</name>
      </rtept>
      <rtept lat="39.096" lon="-94.59574">
         <name>Turn 138</name>
      </rtept>
      <rtept lat="39.0958" lon="-94.59585">
         <name>Turn 139</name>
      </rtept>
      <rtept lat="39.09562" lon="-94.59595">
         <name>Turn 140</name>
      </rtept>
      <rtept lat="39.09562" lon="-94.59595">
         <name>Turn 141</name>
      </rtept>
      <rtept lat="39.09558" lon="-94.59598">
         <name>Turn 142</name>
      </rtept>
      <rtept lat="39.09557" lon="-94.59599">
         <name>Turn 143</name>
      </rtept>
      <rtept lat="39.09556" lon="-94.59599">
         <name>Turn 144</name>
      </rtept>
      <rtept lat="39.09555" lon="-94.59603">
         <name>Turn 145</name>
      </rtept>
      <rtept lat="39.09556" lon="-94.59606">
         <name>Turn 146</name>
      </rtept>
      <rtept lat="39.0956" lon="-94.5962">
         <name>Turn 147</name>
      </rtept>
      <rtept lat="39.0956" lon="-94.59621">
         <name>Turn 148</name>
      </rtept>
      <rtept lat="39.09561" lon="-94.59628">
         <name>Turn 149</name>
      </rtept>
      <rtept lat="39.0956" lon="-94.59637">
         <name>Turn 150</name>
      </rtept>
      <rtept lat="39.09559" lon="-94.5964">
         <name>Turn 151</name>
      </rtept>
      <rtept lat="39.09557" lon="-94.59644">
         <name>Turn 152</name>
      </rtept>
      <rtept lat="39.09552" lon="-94.5965">
         <name>Turn 153</name>
      </rtept>
      <rtept lat="39.09543" lon="-94.59655">
         <name>Turn 154</name>
      </rtept>
      <rtept lat="39.09526" lon="-94.59664">
         <name>Turn 155</name>
      </rtept>
      <rtept lat="39.09525" lon="-94.59664">
         <name>Turn 156</name>
      </rtept>
      <rtept lat="39.09521" lon="-94.59664">
         <name>Turn 157</name>
      </rtept>
      <rtept lat="39.09516" lon="-94.59662">
         <name>Turn 158</name>
      </rtept>
      <rtept lat="39.09513" lon="-94.59659">
         <name>Turn 159</name>
      </rtept>
      <rtept lat="39.0951" lon="-94.59654">
         <name>Turn 160</name>
      </rtept>
      <rtept lat="39.09508" lon="-94.59648">
         <name>Turn 161</name>
      </rtept>
      <rtept lat="39.09502" lon="-94.59633">
         <name>Turn 162</name>
      </rtept>
      <rtept lat="39.09499" lon="-94.5963">
         <name>Turn 163</name>
      </rtept>
      <rtept lat="39.09497" lon="-94.5963">
         <name>Turn 164</name>
      </rtept>
      <rtept lat="39.09497" lon="-94.5963">
         <name>Turn 165</name>
      </rtept>
      <rtept lat="39.09495" lon="-94.59629">
         <name>Turn 166</name>
      </rtept>
      <rtept lat="39.09492" lon="-94.59631">
         <name>Turn 167</name>
      </rtept>
      <rtept lat="39.09487" lon="-94.59635">
         <name>Turn 168</name>
      </rtept>
      <rtept lat="39.09487" lon="-94.59633">
         <name>Turn 169</name>
      </rtept>
      <rtept lat="39.09486" lon="-94.59632">
         <name>Turn 170</name>
      </rtept>
      <rtept lat="39.09484" lon="-94.5963">
         <name>Turn 171</name>
      </rtept>
      <rtept lat="39.09481" lon="-94.59629">
         <name>Turn 172</name>
      </rtept>
      <rtept lat="39.09476" lon="-94.59629">
         <name>Turn 173</name>
      </rtept>
      <rtept lat="39.09472" lon="-94.59631">
         <name>Turn 174</name>
      </rtept>
      <rtept lat="39.0947" lon="-94.59635">
         <name>Turn 175</name>
      </rtept>
      <rtept lat="39.09469" lon="-94.59639">
         <name>Turn 176</name>
      </rtept>
      <rtept lat="39.09469" lon="-94.59643">
         <name>Turn 177</name>
      </rtept>
      <rtept lat="39.0947" lon="-94.59648">
         <name>Turn 178</name>
      </rtept>
      <rtept lat="39.09468" lon="-94.59648">
         <name>Turn 179</name>
      </rtept>
      <rtept lat="39.09461" lon="-94.59652">
         <name>Turn 180</name>
      </rtept>
      <rtept lat="39.09454" lon="-94.59656">
         <name>Turn 181</name>
      </rtept>
      <rtept lat="39.09434" lon="-94.59667">
         <name>Turn 182</name>
      </rtept>
      <rtept lat="39.09431" lon="-94.59669">
         <name>Turn 183</name>
      </rtept>
      <rtept lat="39.0942" lon="-94.59675">
         <name>Turn 184</name>
      </rtept>
      <rtept lat="39.09416" lon="-94.59676">
         <name>Turn 185</name>
      </rtept>
      <rtept lat="39.094" lon="-94.59677">
         <name>Turn 186</name>
      </rtept>
      <rtept lat="39.09355" lon="-94.5968">
         <name>Turn 187</name>
      </rtept>
      <rtept lat="39.09343" lon="-94.59681">
         <name>Turn 188</name>
      </rtept>
      <rtept lat="39.0932" lon="-94.59682">
         <name>Turn 189</name>
      </rtept>
      <rtept lat="39.09316" lon="-94.59682">
         <name>Turn 190</name>
      </rtept>
      <rtept lat="39.09316" lon="-94.59686">
         <name>Turn 191</name>
      </rtept>
      <rtept lat="39.09316" lon="-94.59687">
         <name>Turn 192</name>
      </rtept>
      <rtept lat="39.0931" lon="-94.59687">
         <name>Turn 193</name>
      </rtept>
      <rtept lat="39.0931" lon="-94.59692">
         <name>Turn 194</name>
      </rtept>
      <rtept lat="39.09308" lon="-94.59694">
         <name>Turn 195</name>
      </rtept>
      <rtept lat="39.09302" lon="-94.59701">
         <name>Turn 196</name>
      </rtept>
      <rtept lat="39.09298" lon="-94.59704">
         <name>Turn 197</name>
      </rtept>
      <rtept lat="39.09297" lon="-94.59704">
         <name>Turn 198</name>
      </rtept>
      <rtept lat="39.09289" lon="-94.59707">
         <name>Turn 199</name>
      </rtept>
      <rtept lat="39.09283" lon="-94.59707">
         <name>Turn 200</name>
      </rtept>
      <rtept lat="39.09268" lon="-94.59703">
         <name>Turn 201</name>
      </rtept>
      <rtept lat="39.09245" lon="-94.59697">
         <name>Turn 202</name>
      </rtept>
      <rtept lat="39.09241" lon="-94.59697">
         <name>Turn 203</name>
      </rtept>
      <rtept lat="39.09239" lon="-94.597">
         <name>Turn 204</name>
      </rtept>
      <rtept lat="39.09235" lon="-94.59707">
         <name>Turn 205</name>
      </rtept>
      <rtept lat="39.09234" lon="-94.59711">
         <name>Turn 206</name>
      </rtept>
      <rtept lat="39.0923" lon="-94.59722">
         <name>Turn 207</name>
      </rtept>
      <rtept lat="39.0923" lon="-94.59722">
         <name>Turn 208</name>
      </rtept>
      <rtept lat="39.09217" lon="-94.59712">
         <name>Turn 209</name>
      </rtept>
      <rtept lat="39.09207" lon="-94.59705">
         <name>Turn 210</name>
      </rtept>
      <rtept lat="39.09198" lon="-94.59699">
         <name>Turn 211</name>
      </rtept>
      <rtept lat="39.0919" lon="-94.59694">
         <name>Turn 212</name>
      </rtept>
      <rtept lat="39.0917" lon="-94.59689">
         <name>Turn 213</name>
      </rtept>
      <rtept lat="39.09165" lon="-94.59688">
         <name>Turn 214</name>
      </rtept>
      <rtept lat="39.09158" lon="-94.59684">
         <name>Turn 215</name>
      </rtept>
      <rtept lat="39.09153" lon="-94.59678">
         <name>Turn 216</name>
      </rtept>
      <rtept lat="39.09142" lon="-94.59665">
         <name>Turn 217</name>
      </rtept>
      <rtept lat="39.09142" lon="-94.59663">
         <name>Turn 218</name>
      </rtept>
      <rtept lat="39.09134" lon="-94.59658">
         <name>Turn 219</name>
      </rtept>
      <rtept lat="39.09121" lon="-94.59659">
         <name>Turn 220</name>
      </rtept>
      <rtept lat="39.09105" lon="-94.59653">
         <name>Turn 221</name>
      </rtept>
      <rtept lat="39.09099" lon="-94.59649">
         <name>Turn 222</name>
      </rtept>
      <rtept lat="39.09091" lon="-94.59643">
         <name>Turn 223</name>
      </rtept>
      <rtept lat="39.09063" lon="-94.59618">
         <name>Turn 224</name>
      </rtept>
      <rtept lat="39.09058" lon="-94.59612">
         <name>Turn 225</name>
      </rtept>
      <rtept lat="39.0904" lon="-94.596">
         <name>Turn 226</name>
      </rtept>
      <rtept lat="39.09022" lon="-94.59589">
         <name>Turn 227</name>
      </rtept>
      <rtept lat="39.09019" lon="-94.59588">
         <name>Turn 228</name>
      </rtept>
      <rtept lat="39.08999" lon="-94.59574">
         <name>Turn 229</name>
      </rtept>
      <rtept lat="39.08979" lon="-94.59561">
         <name>Turn 230</name>
      </rtept>
      <rtept lat="39.08977" lon="-94.5956">
         <name>Turn 231</name>
      </rtept>
      <rtept lat="39.08948" lon="-94.59541">
         <name>Turn 232</name>
      </rtept>
      <rtept lat="39.08947" lon="-94.5954">
         <name>Turn 233</name>
      </rtept>
      <rtept lat="39.08922" lon="-94.59527">
         <name>Turn 234</name>
      </rtept>
      <rtept lat="39.08914" lon="-94.59522">
         <name>Turn 235</name>
      </rtept>
      <rtept lat="39.08882" lon="-94.59501">
         <name>Turn 236</name>
      </rtept>
      <rtept lat="39.0885" lon="-94.59479">
         <name>Turn 237</name>
      </rtept>
      <rtept lat="39.08833" lon="-94.59468">
         <name>Turn 238</name>
      </rtept>
      <rtept lat="39.08827" lon="-94.59464">
         <name>Turn 239</name>
      </rtept>
      <rtept lat="39.08819" lon="-94.59457">
         <name>Turn 240</name>
      </rtept>
      <rtept lat="39.08805" lon="-94.59444">
         <name>Turn 241</name>
      </rtept>
      <rtept lat="39.08791" lon="-94.5943">
         <name>Turn 242</name>
      </rtept>
      <rtept lat="39.08786" lon="-94.59424">
         <name>Turn 243</name>
      </rtept>
      <rtept lat="39.08765" lon="-94.594">
         <name>Turn 244</name>
      </rtept>
      <rtept lat="39.08762" lon="-94.59397">
         <name>Turn 245</name>
      </rtept>
      <rtept lat="39.08763" lon="-94.59424">
         <name>Turn 246</name>
      </rtept>
      <rtept lat="39.08764" lon="-94.59461">
         <name>Turn 247</name>
      </rtept>
      <rtept lat="39.08765" lon="-94.5948">
         <name>Turn 248</name>
      </rtept>
      <rtept lat="39.08766" lon="-94.59526">
         <name>Turn 249</name>
      </rtept>
      <rtept lat="39.08766" lon="-94.59539">
         <name>Turn 250</name>
      </rtept>
      <rtept lat="39.08767" lon="-94.59541">
         <name>Turn 251</name>
      </rtept>
      <rtept lat="39.08768" lon="-94.59591">
         <name>Turn 252</name>
      </rtept>
      <rtept lat="39.08769" lon="-94.59598">
         <name>Turn 253</name>
      </rtept>
      <rtept lat="39.08769" lon="-94.59622">
         <name>Turn 254</name>
      </rtept>
      <rtept lat="39.0877" lon="-94.59655">
         <name>Turn 255</name>
      </rtept>
      <rtept lat="39.08772" lon="-94.59704">
         <name>Turn 256</name>
      </rtept>
      <rtept lat="39.08772" lon="-94.59706">
         <name>Turn 257</name>
      </rtept>
      <rtept lat="39.08772" lon="-94.59712">
         <name>Turn 258</name>
      </rtept>
      <rtept lat="39.08773" lon="-94.5977">
         <name>Turn 259</name>
      </rtept>
      <rtept lat="39.08775" lon="-94.59827">
         <name>Turn 260</name>
      </rtept>
      <rtept lat="39.08775" lon="-94.59831">
         <name>Turn 261</name>
      </rtept>
      <rtept lat="39.08807" lon="-94.59831">
         <name>Turn 262</name>
      </rtept>
      <rtept lat="39.08835" lon="-94.59829">
         <name>Turn 263</name>
      </rtept>
      <rtept lat="39.08874" lon="-94.59827">
         <name>Turn 264</name>
      </rtept>
      <rtept lat="39.08878" lon="-94.59826">
         <name>Turn 265</name>
      </rtept>
      <rtept lat="39.08891" lon="-94.59825">
         <name>Turn 266</name>
      </rtept>
      <rtept lat="39.08902" lon="-94.59825">
         <name>Turn 267</name>
      </rtept>
      <rtept lat="39.08916" lon="-94.59824">
         <name>Turn 268</name>
      </rtept>
      <rtept lat="39.08945" lon="-94.59822">
         <name>Turn 269</name>
      </rtept>
      <rtept lat="39.08957" lon="-94.59821">
         <name>Turn 270</name>
      </rtept>
      <rtept lat="39.08957" lon="-94.59821">
         <name>Turn 271</name>
      </rtept>
      <rtept lat="39.09007" lon="-94.59818">
         <name>Turn 272</name>
      </rtept>
      <rtept lat="39.09055" lon="-94.59815">
         <name>Turn 273</name>
      </rtept>
      <rtept lat="39.09075" lon="-94.59814">
         <name>Turn 274</name>
      </rtept>
      <rtept lat="39.09077" lon="-94.59814">
         <name>Turn 275</name>
      </rtept>
      <rtept lat="39.09138" lon="-94.5981">
         <name>Turn 276</name>
      </rtept>
      <rtept lat="39.09165" lon="-94.59809">
         <name>Turn 277</name>
      </rtept>
      <rtept lat="39.09258" lon="-94.59805">
         <name>Turn 278</name>
      </rtept>
      <rtept lat="39.09263" lon="-94.59805">
         <name>Turn 279</name>
      </rtept>
      <rtept lat="39.0927" lon="-94.59806">
         <name>Turn 280</name>
      </rtept>
      <rtept lat="39.09272" lon="-94.59806">
         <name>Turn 281</name>
      </rtept>
      <rtept lat="39.09271" lon="-94.59796">
         <name>Turn 282</name>
      </rtept>
      <rtept lat="39.0927" lon="-94.59756">
         <name>Turn 283</name>
      </rtept>
      <rtept lat="39.0929" lon="-94.59724">
         <name>Turn 284</name>
      </rtept>
      <rtept lat="39.0927" lon="-94.59756">
         <name>Turn 285</name>
      </rtept>
      <rtept lat="39.09271" lon="-94.59796">
         <name>Turn 286</name>
      </rtept>
      <rtept lat="39.09272" lon="-94.59806">
         <name>Turn 287</name>
      </rtept>
      <rtept lat="39.0927" lon="-94.59806">
         <name>Turn 288</name>
      </rtept>
      <rtept lat="39.09263" lon="-94.59805">
         <name>Turn 289</name>
      </rtept>
      <rtept lat="39.09258" lon="-94.59805">
         <name>Turn 290</name>
      </rtept>
      <rtept lat="39.09165" lon="-94.59809">
         <name>Turn 291</name>
      </rtept>
      <rtept lat="39.09138" lon="-94.5981">
         <name>Turn 292</name>
      </rtept>
      <rtept lat="39.09077" lon="-94.59814">
         <name>Turn 293</name>
      </rtept>
      <rtept lat="39.09075" lon="-94.59814">
         <name>Turn 294</name>
      </rtept>
      <rtept lat="39.09055" lon="-94.59815">
         <name>Turn 295</name>
      </rtept>
      <rtept lat="39.09007" lon="-94.59818">
         <name>Turn 296</name>
      </rtept>
      <rtept lat="39.08957" lon="-94.59821">
         <name>Turn 297</name>
      </rtept>
      <rtept lat="39.08957" lon="-94.59821">
         <name>Turn 298</name>
      </rtept>
      <rtept lat="39.08945" lon="-94.59822">
         <name>Turn 299</name>
      </rtept>
      <rtept lat="39.08916" lon="-94.59824">
         <name>Turn 300</name>
      </rtept>
      <rtept lat="39.08902" lon="-94.59825">
         <name>Turn 301</name>
      </rtept>
      <rtept lat="39.08891" lon="-94.59825">
         <name>Turn 302</name>
      </rtept>
      <rtept lat="39.08878" lon="-94.59826">
         <name>Turn 303</name>
      </rtept>
      <rtept lat="39.08874" lon="-94.59827">
         <name>Turn 304</name>
      </rtept>
      <rtept lat="39.08835" lon="-94.59829">
         <name>Turn 305</name>
      </rtept>
      <rtept lat="39.08807" lon="-94.59831">
         <name>Turn 306</name>
      </rtept>
      <rtept lat="39.08775" lon="-94.59831">
         <name>Turn 307</name>
      </rtept>
      <rtept lat="39.08775" lon="-94.59827">
         <name>Turn 308</name>
      </rtept>
      <rtept lat="39.08773" lon="-94.5977">
         <name>Turn 309</name>
      </rtept>
      <rtept lat="39.08772" lon="-94.59712">
         <name>Turn 310</name>
      </rtept>
      <rtept lat="39.08772" lon="-94.59706">
         <name>Turn 311</name>
      </rtept>
      <rtept lat="39.08772" lon="-94.59704">
         <name>Turn 312</name>
      </rtept>
      <rtept lat="39.0877" lon="-94.59655">
         <name>Turn 313</name>
      </rtept>
      <rtept lat="39.08769" lon="-94.59622">
         <name>Turn 314</name>
      </rtept>
      <rtept lat="39.08769" lon="-94.59598">
         <name>Turn 315</name>
      </rtept>
      <rtept lat="39.08768" lon="-94.59591">
         <name>Turn 316</name>
      </rtept>
      <rtept lat="39.08767" lon="-94.59541">
         <name>Turn 317</name>
      </rtept>
      <rtept lat="39.08766" lon="-94.59539">
         <name>Turn 318</name>
      </rtept>
      <rtept lat="39.08766" lon="-94.59526">
         <name>Turn 319</name>
      </rtept>
      <rtept lat="39.08765" lon="-94.5948">
         <name>Turn 320</name>
      </rtept>
      <rtept lat="39.08764" lon="-94.59461">
         <name>Turn 321</name>
      </rtept>
      <rtept lat="39.08763" lon="-94.59424">
         <name>Turn 322</name>
      </rtept>
      <rtept lat="39.08762" lon="-94.59397">
         <name>Turn 323</name>
      </rtept>
      <rtept lat="39.08765" lon="-94.594">
         <name>Turn 324</name>
      </rtept>
      <rtept lat="39.08786" lon="-94.59424">
         <name>Turn 325</name>
      </rtept>
      <rtept lat="39.08791" lon="-94.5943">
         <name>Turn 326</name>
      </rtept>
      <rtept lat="39.08805" lon="-94.59444">
         <name>Turn 327</name>
      </rtept>
      <rtept lat="39.08819" lon="-94.59457">
         <name>Turn 328</name>
      </rtept>
      <rtept lat="39.08827" lon="-94.59464">
         <name>Turn 329</name>
      </rtept>
      <rtept lat="39.08833" lon="-94.59468">
         <name>Turn 330</name>
      </rtept>
      <rtept lat="39.0885" lon="-94.59479">
         <name>Turn 331</name>
      </rtept>
      <rtept lat="39.08882" lon="-94.59501">
         <name>Turn 332</name>
      </rtept>
      <rtept lat="39.08914" lon="-94.59522">
         <name>Turn 333</name>
      </rtept>
      <rtept lat="39.08922" lon="-94.59527">
         <name>Turn 334</name>
      </rtept>
      <rtept lat="39.08947" lon="-94.5954">
         <name>Turn 335</name>
      </rtept>
      <rtept lat="39.08948" lon="-94.59541">
         <name>Turn 336</name>
      </rtept>
      <rtept lat="39.08977" lon="-94.5956">
         <name>Turn 337</name>
      </rtept>
      <rtept lat="39.08979" lon="-94.59561">
         <name>Turn 338</name>
      </rtept>
      <rtept lat="39.08999" lon="-94.59574">
         <name>Turn 339</name>
      </rtept>
      <rtept lat="39.09019" lon="-94.59588">
         <name>Turn 340</name>
      </rtept>
      <rtept lat="39.09022" lon="-94.59589">
         <name>Turn 341</name>
      </rtept>
      <rtept lat="39.0904" lon="-94.596">
         <name>Turn 342</name>
      </rtept>
      <rtept lat="39.09058" lon="-94.59612">
         <name>Turn 343</name>
      </rtept>
      <rtept lat="39.09063" lon="-94.59618">
         <name>Turn 344</name>
      </rtept>
      <rtept lat="39.09091" lon="-94.59643">
         <name>Turn 345</name>
      </rtept>
      <rtept lat="39.09099" lon="-94.59649">
         <name>Turn 346</name>
      </rtept>
      <rtept lat="39.09105" lon="-94.59653">
         <name>Turn 347</name>
      </rtept>
      <rtept lat="39.09121" lon="-94.59659">
         <name>Turn 348</name>
      </rtept>
      <rtept lat="39.09134" lon="-94.59658">
         <name>Turn 349</name>
      </rtept>
      <rtept lat="39.09142" lon="-94.59663">
         <name>Turn 350</name>
      </rtept>
      <rtept lat="39.09142" lon="-94.59665">
         <name>Turn 351</name>
      </rtept>
      <rtept lat="39.09153" lon="-94.59678">
         <name>Turn 352</name>
      </rtept>
      <rtept lat="39.09158" lon="-94.59684">
         <name>Turn 353</name>
      </rtept>
      <rtept lat="39.09165" lon="-94.59688">
         <name>Turn 354</name>
      </rtept>
      <rtept lat="39.0917" lon="-94.59689">
         <name>Turn 355</name>
      </rtept>
      <rtept lat="39.0919" lon="-94.59694">
         <name>Turn 356</name>
      </rtept>
      <rtept lat="39.09198" lon="-94.59699">
         <name>Turn 357</name>
      </rtept>
      <rtept lat="39.09207" lon="-94.59705">
         <name>Turn 358</name>
      </rtept>
      <rtept lat="39.09217" lon="-94.59712">
         <name>Turn 359</name>
      </rtept>
      <rtept lat="39.0923" lon="-94.59722">
         <name>Turn 360</name>
      </rtept>
      <rtept lat="39.0923" lon="-94.59722">
         <name>Turn 361</name>
      </rtept>
      <rtept lat="39.09234" lon="-94.59711">
         <name>Turn 362</name>
      </rtept>
      <rtept lat="39.09235" lon="-94.59707">
         <name>Turn 363</name>
      </rtept>
      <rtept lat="39.09239" lon="-94.597">
         <name>Turn 364</name>
      </rtept>
      <rtept lat="39.09241" lon="-94.59697">
         <name>Turn 365</name>
      </rtept>
      <rtept lat="39.09245" lon="-94.59697">
         <name>Turn 366</name>
      </rtept>
      <rtept lat="39.09268" lon="-94.59703">
         <name>Turn 367</name>
      </rtept>
      <rtept lat="39.09283" lon="-94.59707">
         <name>Turn 368</name>
      </rtept>
      <rtept lat="39.09289" lon="-94.59707">
         <name>Turn 369</name>
      </rtept>
      <rtept lat="39.09297" lon="-94.59704">
         <name>Turn 370</name>
      </rtept>
      <rtept lat="39.09298" lon="-94.59704">
         <name>Turn 371</name>
      </rtept>
      <rtept lat="39.09302" lon="-94.59701">
         <name>Turn 372</name>
      </rtept>
      <rtept lat="39.09308" lon="-94.59694">
         <name>Turn 373</name>
      </rtept>
      <rtept lat="39.0931" lon="-94.59692">
         <name>Turn 374</name>
      </rtept>
      <rtept lat="39.0931" lon="-94.59687">
         <name>Turn 375</name>
      </rtept>
      <rtept lat="39.09316" lon="-94.59687">
         <name>Turn 376</name>
      </rtept>
      <rtept lat="39.09316" lon="-94.59686">
         <name>Turn 377</name>
      </rtept>
      <rtept lat="39.09316" lon="-94.59682">
         <name>Turn 378</name>
      </rtept>
      <rtept lat="39.0932" lon="-94.59682">
         <name>Turn 379</name>
      </rtept>
      <rtept lat="39.09343" lon="-94.59681">
         <name>Turn 380</name>
      </rtept>
      <rtept lat="39.09355" lon="-94.5968">
         <name>Turn 381</name>
      </rtept>
      <rtept lat="39.094" lon="-94.59677">
         <name>Turn 382</name>
      </rtept>
      <rtept lat="39.09416" lon="-94.59676">
         <name>Turn 383</name>
      </rtept>
      <rtept lat="39.0942" lon="-94.59675">
         <name>Turn 384</name>
      </rtept>
      <rtept lat="39.09431" lon="-94.59669">
         <name>Turn 385</name>
      </rtept>
      <rtept lat="39.09434" lon="-94.59667">
         <name>Turn 386</name>
      </rtept>
      <rtept lat="39.09454" lon="-94.59656">
         <name>Turn 387</name>
      </rtept>
      <rtept lat="39.09461" lon="-94.59652">
         <name>Turn 388</name>
      </rtept>
      <rtept lat="39.09468" lon="-94.59648">
         <name>Turn 389</name>
      </rtept>
      <rtept lat="39.0947" lon="-94.59648">
         <name>Turn 390</name>
      </rtept>
      <rtept lat="39.09469" lon="-94.59643">
         <name>Turn 391</name>
      </rtept>
      <rtept lat="39.09469" lon="-94.59639">
         <name>Turn 392</name>
      </rtept>
      <rtept lat="39.0947" lon="-94.59635">
         <name>Turn 393</name>
      </rtept>
      <rtept lat="39.09472" lon="-94.59631">
         <name>Turn 394</name>
      </rtept>
      <rtept lat="39.09476" lon="-94.59629">
         <name>Turn 395</name>
      </rtept>
      <rtept lat="39.09481" lon="-94.59629">
         <name>Turn 396</name>
      </rtept>
      <rtept lat="39.09484" lon="-94.5963">
         <name>Turn 397</name>
      </rtept>
      <rtept lat="39.09486" lon="-94.59632">
         <name>Turn 398</name>
      </rtept>
      <rtept lat="39.09487" lon="-94.59633">
         <name>Turn 399</name>
      </rtept>
      <rtept lat="39.09487" lon="-94.59635">
         <name>Turn 400</name>
      </rtept>
      <rtept lat="39.09492" lon="-94.59631">
         <name>Turn 401</name>
      </rtept>
      <rtept lat="39.09495" lon="-94.59629">
         <name>Turn 402</name>
      </rtept>
      <rtept lat="39.09497" lon="-94.5963">
         <name>Turn 403</name>
      </rtept>
      <rtept lat="39.09497" lon="-94.5963">
         <name>Turn 404</name>
      </rtept>
      <rtept lat="39.09499" lon="-94.5963">
         <name>Turn 405</name>
      </rtept>
      <rtept lat="39.09502" lon="-94.59633">
         <name>Turn 406</name>
      </rtept>
      <rtept lat="39.09508" lon="-94.59648">
         <name>Turn 407</name>
      </rtept>
      <rtept lat="39.0951" lon="-94.59654">
         <name>Turn 408</name>
      </rtept>
      <rtept lat="39.09513" lon="-94.59659">
         <name>Turn 409</name>
      </rtept>
      <rtept lat="39.09516" lon="-94.59662">
         <name>Turn 410</name>
      </rtept>
      <rtept lat="39.09521" lon="-94.59664">
         <name>Turn 411</name>
      </rtept>
      <rtept lat="39.09525" lon="-94.59664">
         <name>Turn 412</name>
      </rtept>
      <rtept lat="39.09526" lon="-94.59664">
         <name>Turn 413</name>
      </rtept>
      <rtept lat="39.09543" lon="-94.59655">
         <name>Turn 414</name>
      </rtept>
      <rtept lat="39.09552" lon="-94.5965">
         <name>Turn 415</name>
      </rtept>
      <rtept lat="39.09557" lon="-94.59644">
         <name>Turn 416</name>
      </rtept>
      <rtept lat="39.09559" lon="-94.5964">
         <name>Turn 417</name>
      </rtept>
      <rtept lat="39.0956" lon="-94.59637">
         <name>Turn 418</name>
      </rtept>
      <rtept lat="39.09561" lon="-94.59628">
         <name>Turn 419</name>
      </rtept>
      <rtept lat="39.0956" lon="-94.59621">
         <name>Turn 420</name>
      </rtept>
      <rtept lat="39.0956" lon="-94.5962">
         <name>Turn 421</name>
      </rtept>
      <rtept lat="39.09556" lon="-94.59606">
         <name>Turn 422</name>
      </rtept>
      <rtept lat="39.09555" lon="-94.59603">
         <name>Turn 423</name>
      </rtept>
      <rtept lat="39.09556" lon="-94.59599">
         <name>Turn 424</name>
      </rtept>
      <rtept lat="39.09557" lon="-94.59599">
         <name>Turn 425</name>
      </rtept>
      <rtept lat="39.09558" lon="-94.59598">
         <name>Turn 426</name>
      </rtept>
      <rtept lat="39.09562" lon="-94.59595">
         <name>Turn 427</name>
      </rtept>
      <rtept lat="39.09562" lon="-94.59595">
         <name>Turn 428</name>
      </rtept>
      <rtept lat="39.0958" lon="-94.59585">
         <name>Turn 429</name>
      </rtept>
      <rtept lat="39.096" lon="-94.59574">
         <name>Turn 430</name>
      </rtept>
      <rtept lat="39.09616" lon="-94.59565">
         <name>Turn 431</name>
      </rtept>
      <rtept lat="39.09617" lon="-94.59565">
         <name>Turn 432</name>
      </rtept>
      <rtept lat="39.09626" lon="-94.59569">
         <name>Turn 433</name>
      </rtept>
      <rtept lat="39.09627" lon="-94.5957">
         <name>Turn 434</name>
      </rtept>
      <rtept lat="39.09632" lon="-94.59574">
         <name>Turn 435</name>
      </rtept>
      <rtept lat="39.09638" lon="-94.5958">
         <name>Turn 436</name>
      </rtept>
      <rtept lat="39.09641" lon="-94.59581">
         <name>Turn 437</name>
      </rtept>
      <rtept lat="39.09646" lon="-94.5958">
         <name>Turn 438</name>
      </rtept>
      <rtept lat="39.0965" lon="-94.59579">
         <name>Turn 439</name>
      </rtept>
      <rtept lat="39.09673" lon="-94.59568">
         <name>Turn 440</name>
      </rtept>
      <rtept lat="39.09697" lon="-94.59558">
         <name>Turn 441</name>
      </rtept>
      <rtept lat="39.09716" lon="-94.59549">
         <name>Turn 442</name>
      </rtept>
      <rtept lat="39.09717" lon="-94.59549">
         <name>Turn 443</name>
      </rtept>
      <rtept lat="39.09728" lon="-94.59546">
         <name>Turn 444</name>
      </rtept>
      <rtept lat="39.09732" lon="-94.59545">
         <name>Turn 445</name>
      </rtept>
      <rtept lat="39.09785" lon="-94.59543">
         <name>Turn 446</name>
      </rtept>
      <rtept lat="39.098" lon="-94.5954">
         <name>Turn 447</name>
      </rtept>
      <rtept lat="39.09807" lon="-94.59526">
         <name>Turn 448</name>
      </rtept>
      <rtept lat="39.0981" lon="-94.59526">
         <name>Turn 449</name>
      </rtept>
      <rtept lat="39.0982" lon="-94.59526">
         <name>Turn 450</name>
      </rtept>
      <rtept lat="39.09824" lon="-94.59506">
         <name>Turn 451</name>
      </rtept>
      <rtept lat="39.09815" lon="-94.59491">
         <name>Turn 452</name>
      </rtept>
      <rtept lat="39.09816" lon="-94.59477">
         <name>Turn 453</name>
      </rtept>
      <rtept lat="39.09811" lon="-94.59408">
         <name>Turn 454</name>
      </rtept>
      <rtept lat="39.09809" lon="-94.59352">
         <name>Turn 455</name>
      </rtept>
      <rtept lat="39.09808" lon="-94.59326">
         <name>Turn 456</name>
      </rtept>
      <rtept lat="39.09797" lon="-94.59324">
         <name>Turn 457</name>
      </rtept>
      <rtept lat="39.09788" lon="-94.59317">
         <name>Turn 458</name>
      </rtept>
      <rtept lat="39.09787" lon="-94.59316">
         <name>Turn 459</name>
      </rtept>
      <rtept lat="39.09777" lon="-94.59317">
         <name>Turn 460</name>
      </rtept>
      <rtept lat="39.09734" lon="-94.59316">
         <name>Turn 461</name>
      </rtept>
      <rtept lat="39.09714" lon="-94.59316">
         <name>Turn 462</name>
      </rtept>
      <rtept lat="39.09713" lon="-94.59305">
         <name>Turn 463</name>
      </rtept>
      <rtept lat="39.0972" lon="-94.59268">
         <name>Turn 464</name>
      </rtept>
      <rtept lat="39.09731" lon="-94.59244">
         <name>Turn 465</name>
      </rtept>
      <rtept lat="39.09773" lon="-94.5915">
         <name>Turn 466</name>
      </rtept>
      <rtept lat="39.09777" lon="-94.59147">
         <name>Turn 467</name>
      </rtept>
      <rtept lat="39.09782" lon="-94.59132">
         <name>Turn 468</name>
      </rtept>
      <rtept lat="39.09786" lon="-94.5913">
         <name>Turn 469</name>
      </rtept>
      <rtept lat="39.09794" lon="-94.59126">
         <name>Turn 470</name>
      </rtept>
      <rtept lat="39.09797" lon="-94.59126">
         <name>Turn 471</name>
      </rtept>
      <rtept lat="39.09823" lon="-94.59124">
         <name>Turn 472</name>
      </rtept>
      <rtept lat="39.09831" lon="-94.59124">
         <name>Turn 473</name>
      </rtept>
      <rtept lat="39.09836" lon="-94.59124">
         <name>Turn 474</name>
      </rtept>
      <rtept lat="39.09844" lon="-94.59123">
         <name>Turn 475</name>
      </rtept>
      <rtept lat="39.0987" lon="-94.59122">
         <name>Turn 476</name>
      </rtept>
      <rtept lat="39.09878" lon="-94.59122">
         <name>Turn 477</name>
      </rtept>
      <rtept lat="39.09914" lon="-94.59121">
         <name>Turn 478</name>
      </rtept>
      <rtept lat="39.09924" lon="-94.59121">
         <name>Turn 479</name>
      </rtept>
      <rtept lat="39.09971" lon="-94.5912">
         <name>Turn 480</name>
      </rtept>
      <rtept lat="39.09978" lon="-94.59119">
         <name>Turn 481</name>
      </rtept>
      <rtept lat="39.09981" lon="-94.59119">
         <name>Turn 482</name>
      </rtept>
      <rtept lat="39.0999" lon="-94.59119">
         <name>Turn 483</name>
      </rtept>
      <rtept lat="39.10015" lon="-94.59118">
         <name>Turn 484</name>
      </rtept>
      <rtept lat="39.10018" lon="-94.59118">
         <name>Turn 485</name>
      </rtept>
      <rtept lat="39.10022" lon="-94.59117">
         <name>Turn 486</name>
      </rtept>
      <rtept lat="39.10029" lon="-94.59117">
         <name>Turn 487</name>
      </rtept>
      <rtept lat="39.10066" lon="-94.59115">
         <name>Turn 488</name>
      </rtept>
      <rtept lat="39.10106" lon="-94.59112">
         <name>Turn 489</name>
      </rtept>
      <rtept lat="39.10112" lon="-94.59112">
         <name>Turn 490</name>
      </rtept>
      <rtept lat="39.10114" lon="-94.59112">
         <name>Turn 491</name>
      </rtept>
      <rtept lat="39.10112" lon="-94.59112">
         <name>Turn 492</name>
      </rtept>
      <rtept lat="39.10114" lon="-94.59169">
         <name>Turn 493</name>
      </rtept>
      <rtept lat="39.10115" lon="-94.59183">
         <name>Turn 494</name>
      </rtept>
      <rtept lat="39.10116" lon="-94.59203">
         <name>Turn 495</name>
      </rtept>
      <rtept lat="39.10116" lon="-94.59214">
         <name>Turn 496</name>
      </rtept>
      <rtept lat="39.10117" lon="-94.59223">
         <name>Turn 497</name>
      </rtept>
      <rtept lat="39.10117" lon="-94.59226">
         <name>Turn 498</name>
      </rtept>
      <rtept lat="39.10117" lon="-94.59243">
         <name>Turn 499</name>
      </rtept>
      <rtept lat="39.10121" lon="-94.59261">
         <name>Turn 500</name>
      </rtept>
      <rtept lat="39.10128" lon="-94.59279">
         <name>Turn 501</name>
      </rtept>
      <rtept lat="39.10134" lon="-94.59292">
         <name>Turn 502</name>
      </rtept>
      <rtept lat="39.10136" lon="-94.59294">
         <name>Turn 503</name>
      </rtept>
      <rtept lat="39.10143" lon="-94.59307">
         <name>Turn 504</name>
      </rtept>
      <rtept lat="39.10145" lon="-94.59309">
         <name>Turn 505</name>
      </rtept>
      <rtept lat="39.10146" lon="-94.59311">
         <name>Turn 506</name>
      </rtept>
      <rtept lat="39.10147" lon="-94.59313">
         <name>Turn 507</name>
      </rtept>
      <rtept lat="39.10152" lon="-94.5932">
         <name>Turn 508</name>
      </rtept>
      <rtept lat="39.10157" lon="-94.59323">
         <name>Turn 509</name>
      </rtept>
      <rtept lat="39.10162" lon="-94.59326">
         <name>Turn 510</name>
      </rtept>
      <rtept lat="39.10175" lon="-94.5933">
         <name>Turn 511</name>
      </rtept>
      <rtept lat="39.10183" lon="-94.59329">
         <name>Turn 512</name>
      </rtept>
      <rtept lat="39.10185" lon="-94.59329">
         <name>Turn 513</name>
      </rtept>
      <rtept lat="39.1022" lon="-94.59327">
         <name>Turn 514</name>
      </rtept>
      <rtept lat="39.10255" lon="-94.59325">
         <name>Turn 515</name>
      </rtept>
      <rtept lat="39.10255" lon="-94.59325">
         <name>Turn 516</name>
      </rtept>
      <rtept lat="39.10255" lon="-94.59316">
         <name>Turn 517</name>
      </rtept>
      <rtept lat="39.10263" lon="-94.59315">
         <name>Turn 518</name>
      </rtept>
      <rtept lat="39.10264" lon="-94.59328">
         <name>Turn 519</name>
      </rtept>
      <rtept lat="39.10265" lon="-94.59328">
         <name>Turn 520</name>
      </rtept>
      <rtept lat="39.10284" lon="-94.59327">
         <name>Turn 521</name>
      </rtept>
      <rtept lat="39.10288" lon="-94.59324">
         <name>Turn 522</name>
      </rtept>
      <rtept lat="39.10302" lon="-94.59323">
         <name>Turn 523</name>
      </rtept>
      <rtept lat="39.10307" lon="-94.59319">
         <name>Turn 524</name>
      </rtept>
      <rtept lat="39.10316" lon="-94.59319">
         <name>Turn 525</name>
      </rtept>
      <rtept lat="39.10316" lon="-94.59314">
         <name>Turn 526</name>
      </rtept>
      <rtept lat="39.10317" lon="-94.59309">
         <name>Turn 527</name>
      </rtept>
      <rtept lat="39.1032" lon="-94.593">
         <name>Turn 528</name>
      </rtept>
      <rtept lat="39.10327" lon="-94.59288">
         <name>Turn 529</name>
      </rtept>
      <rtept lat="39.10336" lon="-94.59279">
         <name>Turn 530</name>
      </rtept>
      <rtept lat="39.10345" lon="-94.59274">
         <name>Turn 531</name>
      </rtept>
      <rtept lat="39.10349" lon="-94.59272">
         <name>Turn 532</name>
      </rtept>
      <rtept lat="39.1037" lon="-94.59258">
         <name>Turn 533</name>
      </rtept>
      <rtept lat="39.10381" lon="-94.59248">
         <name>Turn 534</name>
      </rtept>
      <rtept lat="39.1039" lon="-94.59237">
         <name>Turn 535</name>
      </rtept>
      <rtept lat="39.10395" lon="-94.59228">
         <name>Turn 536</name>
      </rtept>
      <rtept lat="39.10398" lon="-94.59218">
         <name>Turn 537</name>
      </rtept>
      <rtept lat="39.10396" lon="-94.59218">
         <name>Turn 538</name>
      </rtept>
      <rtept lat="39.10396" lon="-94.59217">
         <name>Turn 539</name>
      </rtept>
      <rtept lat="39.10396" lon="-94.59218">
         <name>Turn 540</name>
      </rtept>
      <rtept lat="39.10398" lon="-94.59218">
         <name>Turn 541</name>
      </rtept>
      <rtept lat="39.10433" lon="-94.59217">
         <name>Turn 542</name>
      </rtept>
      <rtept lat="39.10434" lon="-94.59217">
         <name>Turn 543</name>
      </rtept>
      <rtept lat="39.10459" lon="-94.59216">
         <name>Turn 544</name>
      </rtept>
      <rtept lat="39.10463" lon="-94.59216">
         <name>Turn 545</name>
      </rtept>
      <rtept lat="39.1047" lon="-94.59215">
         <name>Turn 546</name>
      </rtept>
      <rtept lat="39.10476" lon="-94.59206">
         <name>Turn 547</name>
      </rtept>
      <rtept lat="39.10476" lon="-94.59205">
         <name>Turn 548</name>
      </rtept>
      <rtept lat="39.10476" lon="-94.59208">
         <name>Turn 549</name>
      </rtept>
      <rtept lat="39.10476" lon="-94.5921">
         <name>Turn 550</name>
      </rtept>
      <rtept lat="39.10477" lon="-94.59213">
         <name>Turn 551</name>
      </rtept>
      <rtept lat="39.10477" lon="-94.59215">
         <name>Turn 552</name>
      </rtept>
      <rtept lat="39.10478" lon="-94.59217">
         <name>Turn 553</name>
      </rtept>
      <rtept lat="39.10479" lon="-94.59219">
         <name>Turn 554</name>
      </rtept>
      <rtept lat="39.10481" lon="-94.59221">
         <name>Turn 555</name>
      </rtept>
      <rtept lat="39.10482" lon="-94.59223">
         <name>Turn 556</name>
      </rtept>
      <rtept lat="39.10484" lon="-94.59224">
         <name>Turn 557</name>
      </rtept>
      <rtept lat="39.10485" lon="-94.59225">
         <name>Turn 558</name>
      </rtept>
      <rtept lat="39.10487" lon="-94.59226">
         <name>Turn 559</name>
      </rtept>
      <rtept lat="39.10489" lon="-94.59226">
         <name>Turn 560</name>
      </rtept>
      <rtept lat="39.10491" lon="-94.59226">
         <name>Turn 561</name>
      </rtept>
      <rtept lat="39.10493" lon="-94.59225">
         <name>Turn 562</name>
      </rtept>
      <rtept lat="39.10495" lon="-94.59225">
         <name>Turn 563</name>
      </rtept>
      <rtept lat="39.10497" lon="-94.59224">
         <name>Turn 564</name>
      </rtept>
      <rtept lat="39.10498" lon="-94.59222">
         <name>Turn 565</name>
      </rtept>
      <rtept lat="39.105" lon="-94.59221">
         <name>Turn 566</name>
      </rtept>
      <rtept lat="39.10501" lon="-94.59219">
         <name>Turn 567</name>
      </rtept>
      <rtept lat="39.10503" lon="-94.59219">
         <name>Turn 568</name>
      </rtept>
   </rte>
</gpx>
